{
  "type": "FeatureCollection",
  "note": "Hand-vetted deep-water corridors for the sjokort autorouter. Each LineString follows water known to be navigable; the bake (scripts/bake-sjokort-graph.ts) snaps each vertex to the nearest water, densifies the line into low-cost graph edges, and joins it to the grid. Corridors bridge the narrow, bridge-crossed inner-city channels that a coarse grid cannot resolve (Karlberg -> Riddarfjarden -> Slussen -> Saltsjon -> Lilla Vartan, where the open-sea grid takes over) and bias common runs onto the marked fairway out to Sandhamn. Coordinates are [lon, lat]. These encode local knowledge BY HAND and are NOT depth-checked.",
  "features": [
    {
      "type": "Feature",
      "properties": { "name": "Stockholm (Karlbergskanalen) - Sandhamn" },
      "geometry": {
        "type": "LineString",
        "coordinates": [
          [18.016, 59.337],
          [18.026, 59.332],
          [18.033, 59.327],
          [18.047, 59.323],
          [18.061, 59.322],
          [18.073, 59.321],
          [18.084, 59.323],
          [18.098, 59.327],
          [18.113, 59.333],
          [18.129, 59.343],
          [18.147, 59.353],
          [18.168, 59.363],
          [18.193, 59.376],
          [18.235, 59.390],
          [18.305, 59.401],
          [18.385, 59.406],
          [18.462, 59.405],
          [18.560, 59.390],
          [18.660, 59.356],
          [18.760, 59.320],
          [18.860, 59.300],
          [18.905, 59.290]
        ]
      }
    }
  ]
}
